GLOBALSTAR M023 [+]     
1 25621U 99004A   24035.58948620 -.00000005  00000+0  54929-3 0  9991
2 25621  52.0107 131.6103 0011005 104.9418   0.3885 12.62446345152843
GLOBALSTAR M040 [-]     
1 25622U 99004B   24035.61006740 -.00000100  00000+0  20662-4 0  9998
2 25622  51.9917 134.9724 0001007  73.2071  34.2180 12.61965513152307
GLOBALSTAR M036 [-]     
1 25623U 99004C   24035.53054410 -.00000065  00000+0  25383-3 0  9991
2 25623  51.9964 114.6237 0011911 174.2009 288.2746 11.86559817119788
GLOBALSTAR M038 [-]     
1 25624U 99004D   24035.53493934 -.00000078  00000+0  14185-3 0  9992
2 25624  51.9976  67.5884 0002107 101.7496  63.9172 12.32492511140883
GLOBALSTAR M022 [-]     
1 25649U 99012A   24035.76269289 -.00000060  00000+0  32287-3 0  9991
2 25649  52.0013 205.8186 0001518 253.7155 213.0904 12.02477514116495
GLOBALSTAR M041 [-]     
1 25650U 99012B   24035.47339449 -.00000040  00000+0  58914-3 0  9990
2 25650  52.0022  72.8524 0002248  61.4933 298.6130 11.96656506118577
GLOBALSTAR M046 [-]     
1 25651U 99012C   24035.56936372 -.00000173  00000+0 -92820-3 0  9991
2 25651  52.0039 174.6775 0001736   6.8020  73.8322 12.09384243123681
